NORAD_CAT_ID,OBJECT_NAME,OBJECT_TYPE,EPOCH,MEAN_MOTION,ECCENTRICITY,INCLINATION,RA_OF_ASC_NODE,ARG_OF_PERICENTER,MEAN_ANOMALY,BSTAR,MEAN_MOTION_DOT,MEAN_MOTION_DDOT,TLE_LINE0,TLE_LINE1,TLE_LINE2,SEMIMAJOR_AXIS,PERIOD,APOGEE,PERIGEE,DECAYED
55651.0,STARLINK-5506,PAYLOAD,2024-01-09 09:56:46,14.98329121,0.0002686,70.0006,17.1118,266.0029,94.0823,4.2163e-06,-4.3e-07,0.0,0 STARLINK-5506,1 55651U 23021Z   24009.41442218 -.00000043  00000-0  42163-5 0  9990,2 55651  70.0006  17.1118 0002686 266.0029  94.0823 14.98329121 50419,6950.196,96.107,573.927,570.194,0.0
55651.0,STARLINK-5506,PAYLOAD,2024-01-10 05:10:22,14.9832956,0.0002724,70.0005,15.0913,264.5329,95.5519,1.3653e-05,7e-07,0.0,0 STARLINK-5506,1 55651U 23021Z   24010.21554104  .00000070  00000-0  13653-4 0  9998,2 55651  70.0005  15.0913 0002724 264.5329  95.5519 14.98329560 50232,6950.194,96.107,573.952,570.166,0.0
55651.0,STARLINK-5506,PAYLOAD,2024-01-10 09:58:46,14.98330995,0.0002683,70.0006,14.5864,263.7282,96.3572,3.1037e-05,2.77e-06,0.0,0 STARLINK-5506,1 55651U 23021Z   24010.41581954  .00000277  00000-0  31037-4 0  9998,2 55651  70.0006  14.5864 0002683 263.7282  96.3572 14.98330995 50563,6950.19,96.107,573.92,570.19,0.0
55651.0,STARLINK-5506,PAYLOAD,2024-01-11 10:00:47,14.98334195,0.0002742,70.0004,12.0602,270.0938,89.9907,1.5128e-05,8.8e-07,0.0,0 STARLINK-5506,1 55651U 23021Z   24011.41721646  .00000088  00000-0  15128-4 0  9996,2 55651  70.0004  12.0602 0002742 270.0938  89.9907 14.98334195 50419,6950.18,96.107,573.951,570.139,0.0
55651.0,STARLINK-5506,PAYLOAD,2024-01-12 03:38:16,14.98323811,0.0002388,70.0007,10.2079,259.8904,100.1985,-5.1788e-06,-1.55e-06,0.0,0 STARLINK-5506,1 55651U 23021Z   24012.15158455 -.00000155  00000-0 -51788-5 0  9990,2 55651  70.0007  10.2079 0002388 259.8904 100.1985 14.98323811 50521,6950.212,96.107,573.737,570.417,0.0
55651.0,STARLINK-5506,PAYLOAD,2024-01-12 10:02:49,14.98324439,0.0002515,70.0008,9.5355,265.4309,94.6563,-1.0119e-05,-2.14e-06,0.0,0 STARLINK-5506,1 55651U 23021Z   24012.41862509 -.00000214  00000-0 -10119-4 0  9999,2 55651  70.0008   9.5355 0002515 265.4309  94.6563 14.98324439 50867,6950.21,96.107,573.823,570.327,0.0
55651.0,STARLINK-5506,PAYLOAD,2024-01-13 03:40:17,14.98329286,0.0002744,70.0005,7.6841,271.6885,88.396,-1.8543e-05,-3.14e-06,0.0,0 STARLINK-5506,1 55651U 23021Z   24013.15298242 -.00000314  00000-0 -18543-4 0  9998,2 55651  70.0005   7.6841 0002744 271.6885  88.3960 14.98329286 50670,6950.195,96.107,573.967,570.153,0.0
55651.0,STARLINK-5506,PAYLOAD,2024-01-13 10:04:49,14.9835343,0.0002834,70.0006,7.0106,272.3643,87.7191,-0.0003659,-4.459e-05,0.0,0 STARLINK-5506,1 55651U 23021Z   24013.42001477 -.00004459  00000-0 -36590-3 0  9995,2 55651  70.0006   7.0106 0002834 272.3643  87.7191 14.98353430 50711,6950.12,96.105,573.955,570.016,0.0
55651.0,STARLINK-5506,PAYLOAD,2024-01-14 03:42:18,14.98326589,0.0002746,70.0006,5.1599,260.1928,99.8921,3.0806e-05,2.75e-06,0.0,0 STARLINK-5506,1 55651U 23021Z   24014.15438211  .00000275  00000-0  30806-4 0  9991,2 55651  70.0006   5.1599 0002746 260.1928  99.8921 14.98326589 50821,6950.203,96.107,573.977,570.16,0.0
55651.0,STARLINK-5506,PAYLOAD,2024-01-14 10:06:50,14.98328617,0.000271,70.0008,4.4866,259.5702,100.5152,5.1936e-05,5.27e-06,0.0,0 STARLINK-5506,1 55651U 23021Z   24014.42142052  .00000527  00000-0  51936-4 0  9993,2 55651  70.0008   4.4866 0002710 259.5702 100.5152 14.98328617 51163,6950.197,96.107,573.946,570.179,0.0
55651.0,STARLINK-5506,PAYLOAD,2024-01-15 03:44:19,14.98332898,0.0002707,70.001,2.6353,256.4354,103.6503,1.7829e-05,1.2e-06,0.0,0 STARLINK-5506,1 55651U 23021Z   24015.15577810  .00000120  00000-0  17829-4 0  9990,2 55651  70.0010   2.6353 0002707 256.4354 103.6503 14.98332898 50970,6950.184,96.107,573.93,570.168,0.0
55651.0,STARLINK-5506,PAYLOAD,2024-01-15 08:32:43,14.98335236,0.0002766,70.0007,2.1293,263.9121,96.1722,4.0293e-05,3.88e-06,0.0,0 STARLINK-5506,1 55651U 23021Z   24015.35605575  .00000388  00000-0  40293-4 0  9999,2 55651  70.0007   2.1293 0002766 263.9121  96.1722 14.98335236 51300,6950.177,96.107,573.964,570.119,0.0
55651.0,STARLINK-5506,PAYLOAD,2024-01-16 00:34:04,14.98326843,0.0002573,70.0013,0.4468,255.6477,104.4396,-2.0535e-05,-3.38e-06,0.0,0 STARLINK-5506,1 55651U 23021Z   24016.02366242 -.00000338  00000-0 -20535-4 0  9993,2 55651  70.0013   0.4468 0002573 255.6477 104.4396 14.98326843 51102,6950.203,96.107,573.856,570.279,0.0
55651.0,STARLINK-5506,PAYLOAD,2024-01-16 08:34:45,14.98323536,0.0002674,70.0012,359.6053,264.8196,95.2658,-3.6567e-05,-5.29e-06,0.0,0 STARLINK-5506,1 55651U 23021Z   24016.35746631 -.00000529  00000-0 -36567-4 0  9997,2 55651  70.0012 359.6053 0002674 264.8196  95.2658 14.98323536 51454,6950.213,96.107,573.936,570.219,0.0
55651.0,STARLINK-5506,PAYLOAD,2024-01-17 03:48:21,14.98330759,0.0002895,70.0011,357.5855,264.4441,95.6388,-6.5617e-05,-8.76e-06,0.0,0 STARLINK-5506,1 55651U 23021Z   24017.15858363 -.00000876  00000-0 -65617-4 0  9995,2 55651  70.0011 357.5855 0002895 264.4441  95.6388 14.98330759 51273,6950.191,96.107,574.068,570.043,0.0
55651.0,STARLINK-5506,PAYLOAD,2024-01-17 08:36:45,14.98336286,0.0002709,70.0013,357.0811,259.4553,100.6301,-3.3518e-05,-4.93e-06,0.0,0 STARLINK-5506,1 55651U 23021Z   24017.35885885 -.00000493  00000-0 -33518-4 0  9996,2 55651  70.0013 357.0811 0002709 259.4553 100.6301 14.98336286 51301,6950.173,96.107,573.921,570.156,0.0
55651.0,STARLINK-5506,PAYLOAD,2024-01-18 08:38:46,14.9833358,0.0002688,70.0013,354.5552,265.4205,94.6647,0.00011844,1.321e-05,0.0,0 STARLINK-5506,1 55651U 23021Z   24018.36025522  .00001321  00000-0  11844-3 0  9998,2 55651  70.0013 354.5552 0002688 265.4205  94.6647 14.98333580 51457,6950.182,96.107,573.915,570.179,0.0
55651.0,STARLINK-5506,PAYLOAD,2024-01-19 03:52:21,14.9837764,0.0002787,70.0019,352.5335,262.2418,97.8424,-0.00073292,-8.838e-05,0.0,0 STARLINK-5506,1 55651U 23021Z   24019.16136226 -.00008838  00000-0 -73292-3 0  9998,2 55651  70.0019 352.5335 0002787 262.2418  97.8424 14.98377640 51577,6950.046,96.104,573.848,569.974,0.0
55651.0,STARLINK-5506,PAYLOAD,2024-01-19 08:40:47,14.9832087,0.0002792,70.0013,352.0303,262.4086,97.6756,-0.00013901,-1.751e-05,0.0,0 STARLINK-5506,1 55651U 23021Z   24019.36166305 -.00001751  00000-0 -13901-3 0  9999,2 55651  70.0013 352.0303 0002792 262.4086  97.6756 14.98320870 51603,6950.221,96.108,574.027,570.146,0.0
55651.0,STARLINK-5506,PAYLOAD,2024-01-19 23:06:00,14.98326416,0.0002961,70.0008,350.515,267.5513,92.5307,-0.00013653,-1.721e-05,0.0,0 STARLINK-5506,1 55651U 23021Z   24019.96250019 -.00001721  00000-0 -13653-3 0  9992,2 55651  70.0008 350.5150 0002961 267.5513  92.5307 14.98326416 51999,6950.204,96.107,574.127,570.011,0.0
55651.0,STARLINK-5506,PAYLOAD,2024-01-20 03:54:24,14.98327707,0.0003059,70.0006,350.0101,267.6878,92.3931,-0.00012959,-1.639e-05,0.0,0 STARLINK-5506,1 55651U 23021Z   24020.16277916 -.00001639  00000-0 -12959-3 0  9997,2 55651  70.0006 350.0101 0003059 267.6878  92.3931 14.98327707 51728,6950.2,96.107,574.191,569.939,0.0
55651.0,STARLINK-5506,PAYLOAD,2024-01-20 07:06:39,14.98330918,0.000275,70.0012,349.6737,266.3643,93.7201,-6.8817e-05,-9.14e-06,0.0,0 STARLINK-5506,1 55651U 23021Z   24020.29629566 -.00000914  00000-0 -68817-4 0  9993,2 55651  70.0012 349.6737 0002750 266.3643  93.7201 14.98330918 52046,6950.19,96.107,573.966,570.144,0.0
55651.0,STARLINK-5506,PAYLOAD,2024-01-20 23:08:00,14.98327162,0.0002868,70.0013,347.9905,264.453,95.6302,-0.00010521,-1.348e-05,0.0,0 STARLINK-5506,1 55651U 23021Z   24020.96389608 -.00001348  00000-0 -10521-3 0  9997,2 55651  70.0013 347.9905 0002868 264.4530  95.6302 14.98327162 52140,6950.202,96.107,574.06,570.073,0.0
55651.0,STARLINK-5506,PAYLOAD,2024-01-21 03:56:24,14.98328076,0.0002784,70.0014,347.4857,261.7268,98.3576,-0.00012945,-1.637e-05,0.0,0 STARLINK-5506,1 55651U 23021Z   24021.16417673 -.00001637  00000-0 -12945-3 0  9997,2 55651  70.0014 347.4857 0002784 261.7268  98.3576 14.98328076 51874,6950.199,96.107,573.999,570.129,0.0
55651.0,STARLINK-5506,PAYLOAD,2024-01-21 05:32:32,14.98335786,0.0002718,70.0015,347.3175,261.3498,98.7354,-0.00019984,-2.477e-05,0.0,0 STARLINK-5506,1 55651U 23021Z   24021.23093380 -.00002477  00000-0 -19984-3 0  9993,2 55651  70.0015 347.3175 0002718 261.3498  98.7354 14.98335786 52184,6950.175,96.107,573.929,570.151,0.0
55651.0,STARLINK-5506,PAYLOAD,2024-01-21 21:33:53,14.98327861,0.0002736,70.0019,345.6359,255.2636,104.822,3.7795e-05,3.58e-06,0.0,0 STARLINK-5506,1 55651U 23021Z   24021.89853571  .00000358  00000-0  37795-4 0  9996,2 55651  70.0019 345.6359 0002736 255.2636 104.8220 14.98327861 52286,6950.2,96.107,573.966,570.163,0.0
55651.0,STARLINK-5506,PAYLOAD,2024-01-22 03:58:25,14.9832803,0.0002737,70.002,344.9627,254.5825,105.5032,3.7083e-05,3.5e-06,0.0,0 STARLINK-5506,1 55651U 23021Z   24022.16557593  .00000350  00000-0  37083-4 0  9994,2 55651  70.0020 344.9627 0002737 254.5825 105.5032 14.98328030 52021,6950.199,96.107,573.966,570.162,0.0
55651.0,STARLINK-5506,PAYLOAD,2024-01-22 05:34:33,14.98327713,0.0002744,70.002,344.7943,255.0167,105.0689,3.2721e-05,2.97e-06,0.0,0 STARLINK-5506,1 55651U 23021Z   24022.23233646  .00000297  00000-0  32721-4 0  9996,2 55651  70.0020 344.7943 0002744 255.0167 105.0689 14.98327713 52337,6950.2,96.107,573.972,570.158,0.0
55651.0,STARLINK-5506,PAYLOAD,2024-01-22 21:35:54,14.98328978,0.0002905,70.0016,343.1103,262.9963,97.0866,2.5923e-05,2.16e-06,0.0,0 STARLINK-5506,1 55651U 23021Z   24022.89993687  .00000216  00000-0  25923-4 0  9993,2 55651  70.0016 343.1103 0002905 262.9963  97.0866 14.98328978 52435,6950.196,96.107,574.08,570.042,0.0
55651.0,STARLINK-5506,PAYLOAD,2024-01-23 04:00:26,14.98330938,0.0002876,70.0017,342.4368,262.5376,97.5457,4.8431e-05,4.85e-06,0.0,0 STARLINK-5506,1 55651U 23021Z   24023.16697494  .00000485  00000-0  48431-4 0  9998,2 55651  70.0017 342.4368 0002876 262.5376  97.5457 14.98330938 52173,6950.19,96.107,574.054,570.056,0.0
